{"type": "FeatureCollection", "features": [ {"type": "Feature", "properties": {"norad_id": 66978, "name": "STARLINK-35787", "group": "last-30-days", "lat": -20.903441847502247, "lon": -37.99972401647797, "alt_km": 334.29576031233864, "timestamp": "2025-12-20T18:51:30.449026+00:00", "meta": {"OBJECT_NAME": "STARLINK-35787", "OBJECT_ID": "2025-288V", "EPOCH": "2025-12-20T14:00:03.000384", "MEAN_MOTION": 15.79941178, "ECCENTRICITY": 0.00013967, "INCLINATION": 43.0017, "RA_OF_ASC_NODE": 119.0415, "ARG_OF_PERICENTER": 283.4381, "MEAN_ANOMALY": 215.6932, "EPHEMERIS_TYPE": 0, "CLASSIFICATION_TYPE": "U", "NORAD_CAT_ID": 66978, "ELEMENT_SET_NO": 999, "REV_AT_EPOCH": 309, "BSTAR": -0.0094402713, "MEAN_MOTION_DOT": -0.01579945, "MEAN_MOTION_DDOT": 0}, "tle": {"line1": "1 66978U 25288V   25354.58336806 -.01579945  00000+0 -94403-2 0  9992", "line2": "2 66978  43.0017 119.0415 0001396 283.4381 215.6932 15.79941178  3094"}}, "geometry": {"type": "Point", "coordinates": [-37.99972401647797, -20.903441847502247]}}, {"type": "Feature", "properties": {"norad_id": 66979, "name": "STARLINK-36107", "group": "last-30-days", "lat": -22.37797889601563, "lon": -35.98116796765194, "alt_km": 334.6140510794421, "timestamp": "2025-12-20T18:51:30.449036+00:00", "meta": {"OBJECT_NAME": "STARLINK-36107", "OBJECT_ID": "2025-288W", "EPOCH": "2025-12-20T14:00:03.000384", "MEAN_MOTION": 15.79860426, "ECCENTRICITY": 0.00012808, "INCLINATION": 43.0015, "RA_OF_ASC_NODE": 119.0353, "ARG_OF_PERICENTER": 281.7249, "MEAN_ANOMALY": 219.8584, "EPHEMERIS_TYPE": 0, "CLASSIFICATION_TYPE": "U", "NORAD_CAT_ID": 66979, "ELEMENT_SET_NO": 999, "REV_AT_EPOCH": 309, "BSTAR": -0.009552015, "MEAN_MOTION_DOT": -0.01590938, "MEAN_MOTION_DDOT": 0}, "tle": {"line1": "1 66979U 25288W   25354.58336806 -.01590938  00000+0 -95520-2 0  9999", "line2": "2 66979  43.0015 119.0353 0001280 281.7249 219.8584 15.79860426  3095"}}, "geometry": {"type": "Point", "coordinates": [-35.98116796765194, -22.37797889601563]}}, {"type": "Feature", "properties": {"norad_id": 66980, "name": "STARLINK-36086", "group": "last-30-days", "lat": -23.702014123101307, "lon": -34.10097062722605, "alt_km": 334.70860242959134, "timestamp": "2025-12-20T18:51:30.449046+00:00", "meta": {"OBJECT_NAME": "STARLINK-36086", "OBJECT_ID": "2025-288X", "EPOCH": "2025-12-20T14:00:03.000384", "MEAN_MOTION": 15.79815591, "ECCENTRICITY": 0.00013639, "INCLINATION": 43.0015, "RA_OF_ASC_NODE": 119.0294, "ARG_OF_PERICENTER": 276.4526, "MEAN_ANOMALY": 227.3499, "EPHEMERIS_TYPE": 0, "CLASSIFICATION_TYPE": "U", "NORAD_CAT_ID": 66980, "ELEMENT_SET_NO": 999, "REV_AT_EPOCH": 309, "BSTAR": -0.009636889, "MEAN_MOTION_DOT": -0.01600402, "MEAN_MOTION_DDOT": 0}, "tle": {"line1": "1 66980U 25288X   25354.58336806 -.01600402  00000+0 -96369-2 0  9991", "line2": "2 66980  43.0015 119.0294 0001363 276.4526 227.3499 15.79815591  3094"}}, "geometry": {"type": "Point", "coordinates": [-34.10097062722605, -23.702014123101307]}}, {"type": "Feature", "properties": {"norad_id": 66981, "name": "STARLINK-36142", "group": "last-30-days", "lat": -24.95497271383676, "lon": -32.25385239132677, "alt_km": 334.9445184485503, "timestamp": "2025-12-20T18:51:30.449060+00:00", "meta": {"OBJECT_NAME": "STARLINK-36142", "OBJECT_ID": "2025-288Y", "EPOCH": "2025-12-20T14:00:03.000384", "MEAN_MOTION": 15.79788397, "ECCENTRICITY": 0.00012827, "INCLINATION": 43.0018, "RA_OF_ASC_NODE": 119.0245, "ARG_OF_PERICENTER": 279.9058, "MEAN_ANOMALY": 226.0214, "EPHEMERIS_TYPE": 0, "CLASSIFICATION_TYPE": "U", "NORAD_CAT_ID": 66981, "ELEMENT_SET_NO": 999, "REV_AT_EPOCH": 309, "BSTAR": -0.0097147428, "MEAN_MOTION_DOT": -0.01609806, "MEAN_MOTION_DDOT": 0}, "tle": {"line1": "1 66981U 25288Y   25354.58336806 -.01609806  00000+0 -97147-2 0  9994", "line2": "2 66981  43.0018 119.0245 0001282 279.9058 226.0214 15.79788397  3096"}}, "geometry": {"type": "Point", "coordinates": [-32.25385239132677, -24.95497271383676]}}, {"type": "Feature", "properties": {"norad_id": 66982, "name": "STARLINK-36113", "group": "last-30-days", "lat": -26.2044287020439, "lon": -30.338398706531276, "alt_km": 335.0388011494033, "timestamp": "2025-12-20T18:51:30.449070+00:00", "meta": {"OBJECT_NAME": "STARLINK-36113", "OBJECT_ID": "2025-288Z", "EPOCH": "2025-12-20T14:00:03.000384", "MEAN_MOTION": 15.797482, "ECCENTRICITY": 0.00011915, "INCLINATION": 43.0014, "RA_OF_ASC_NODE": 119.0182, "ARG_OF_PERICENTER": 272.0388, "MEAN_ANOMALY": 236.0552, "EPHEMERIS_TYPE": 0, "CLASSIFICATION_TYPE": "U", "NORAD_CAT_ID": 66982, "ELEMENT_SET_NO": 999, "REV_AT_EPOCH": 309, "BSTAR": -0.0097793788, "MEAN_MOTION_DOT": -0.01616414, "MEAN_MOTION_DDOT": 0}, "tle": {"line1": "1 66982U 25288Z   25354.58336806 -.01616414  00000+0 -97794-2 0  9996", "line2": "2 66982  43.0014 119.0182 0001191 272.0388 236.0552 15.79748200  3097"}}, "geometry": {"type": "Point", "coordinates": [-30.338398706531276, -26.2044287020439]}}, {"type": "Feature", "properties": {"norad_id": 66983, "name": "STARLINK-36145", "group": "last-30-days", "lat": -28.634230829819305, "lon": -26.361177187665653, "alt_km": 335.4073664032221, "timestamp": "2025-12-20T18:51:30.449080+00:00", "meta": {"OBJECT_NAME": "STARLINK-36145", "OBJECT_ID": "2025-288AA", "EPOCH": "2025-12-20T14:00:03.000384", "MEAN_MOTION": 15.79667445, "ECCENTRICITY": 0.00012892, "INCLINATION": 43.0013, "RA_OF_ASC_NODE": 119.0076, "ARG_OF_PERICENTER": 275.1304, "MEAN_ANOMALY": 237.324, "EPHEMERIS_TYPE": 0, "CLASSIFICATION_TYPE": "U", "NORAD_CAT_ID": 66983, "ELEMENT_SET_NO": 999, "REV_AT_EPOCH": 309, "BSTAR": -0.0099390845, "MEAN_MOTION_DOT": -0.0163405, "MEAN_MOTION_DDOT": 0}, "tle": {"line1": "1 66983U 25288AA  25354.58336806 -.01634050  00000+0 -99391-2 0  9998", "line2": "2 66983  43.0013 119.0076 0001289 275.1304 237.3240 15.79667445  3098"}}, "geometry": {"type": "Point", "coordinates": [-26.361177187665653, -28.634230829819305]}}, {"type": "Feature", "properties": {"norad_id": 66984, "name": "STARLINK-35591", "group": "last-30-days", "lat": -27.439037517418434, "lon": -28.362837721207757, "alt_km": 335.3414445614162, "timestamp": "2025-12-20T18:51:30.449090+00:00", "meta": {"OBJECT_NAME": "STARLINK-35591", "OBJECT_ID": "2025-288AB", "EPOCH": "2025-12-20T14:00:03.000384", "MEAN_MOTION": 15.79706491, "ECCENTRICITY": 0.0001203, "INCLINATION": 43.0014, "RA_OF_ASC_NODE": 119.0128, "ARG_OF_PERICENTER": 280.0076, "MEAN_ANOMALY": 230.2782, "EPHEMERIS_TYPE": 0, "CLASSIFICATION_TYPE": "U", "NORAD_CAT_ID": 66984, "ELEMENT_SET_NO": 999, "REV_AT_EPOCH": 309, "BSTAR": -0.0098676134, "MEAN_MOTION_DOT": -0.01626339, "MEAN_MOTION_DDOT": 0}, "tle": {"line1": "1 66984U 25288AB  25354.58336806 -.01626339  00000+0 -98676-2 0  9995", "line2": "2 66984  43.0014 119.0128 0001203 280.0076 230.2782 15.79706491  3093"}}, "geometry": {"type": "Point", "coordinates": [-28.362837721207757, -27.439037517418434]}}, {"type": "Feature", "properties": {"norad_id": 66985, "name": "STARLINK-36103", "group": "last-30-days", "lat": -29.832403172665146, "lon": -24.25464896156085, "alt_km": 335.72636229144337, "timestamp": "2025-12-20T18:51:30.449100+00:00", "meta": {"OBJECT_NAME": "STARLINK-36103", "OBJECT_ID": "2025-288AC", "EPOCH": "2025-12-20T14:00:03.000384", "MEAN_MOTION": 15.7961368, "ECCENTRICITY": 0.00012307, "INCLINATION": 43.0015, "RA_OF_ASC_NODE": 119.002, "ARG_OF_PERICENTER": 280.5431, "MEAN_ANOMALY": 234.1533, "EPHEMERIS_TYPE": 0, "CLASSIFICATION_TYPE": "U", "NORAD_CAT_ID": 66985, "ELEMENT_SET_NO": 999, "REV_AT_EPOCH": 309, "BSTAR": -0.010038426, "MEAN_MOTION_DOT": -0.01644581, "MEAN_MOTION_DDOT": 0}, "tle": {"line1": "1 66985U 25288AC  25354.58336806 -.01644581  00000+0 -10038-1 0  9990", "line2": "2 66985  43.0015 119.0020 0001230 280.5431 234.1533 15.79613680  3090"}}, "geometry": {"type": "Point", "coordinates": [-24.25464896156085, -29.832403172665146]}}, {"type": "Feature", "properties": {"norad_id": 66986, "name": "STARLINK-36135", "group": "last-30-days", "lat": -30.99463636632672, "lon": -22.100319550751166, "alt_km": 335.9715068662381, "timestamp": "2025-12-20T18:51:30.449110+00:00", "meta": {"OBJECT_NAME": "STARLINK-36135", "OBJECT_ID": "2025-288AD", "EPOCH": "2025-12-20T14:00:03.000384", "MEAN_MOTION": 15.79557123, "ECCENTRICITY": 0.00012092, "INCLINATION": 43.0012, "RA_OF_ASC_NODE": 118.9958, "ARG_OF_PERICENTER": 281.9429, "MEAN_ANOMALY": 234.9947, "EPHEMERIS_TYPE": 0, "CLASSIFICATION_TYPE": "U", "NORAD_CAT_ID": 66986, "ELEMENT_SET_NO": 999, "REV_AT_EPOCH": 309, "BSTAR": -0.010131676, "MEAN_MOTION_DOT": -0.01687871, "MEAN_MOTION_DDOT": 0}, "tle": {"line1": "1 66986U 25288AD  25354.58336806 -.01687871  00000+0 -10132-1 0  9995", "line2": "2 66986  43.0012 118.9958 0001209 281.9429 234.9947 15.79557123  3090"}}, "geometry": {"type": "Point", "coordinates": [-22.100319550751166, -30.99463636632672]}}, {"type": "Feature", "properties": {"norad_id": 66987, "name": "STARLINK-36147", "group": "last-30-days", "lat": -32.074709650497, "lon": -19.98523466333255, "alt_km": 336.0961818535643, "timestamp": "2025-12-20T18:51:30.449119+00:00", "meta": {"OBJECT_NAME": "STARLINK-36147", "OBJECT_ID": "2025-288AE", "EPOCH": "2025-12-20T14:00:03.000384", "MEAN_MOTION": 15.79521597, "ECCENTRICITY": 0.00013177, "INCLINATION": 43.0017, "RA_OF_ASC_NODE": 118.991, "ARG_OF_PERICENTER": 283.1185, "MEAN_ANOMALY": 235.9552, "EPHEMERIS_TYPE": 0, "CLASSIFICATION_TYPE": "U", "NORAD_CAT_ID": 66987, "ELEMENT_SET_NO": 999, "REV_AT_EPOCH": 309, "BSTAR": -0.010215024, "MEAN_MOTION_DOT": -0.01697774, "MEAN_MOTION_DDOT": 0}, "tle": {"line1": "1 66987U 25288AE  25354.58336806 -.01697774  00000+0 -10215-1 0  9991", "line2": "2 66987  43.0017 118.9910 0001317 283.1185 235.9552 15.79521597  3096"}}, "geometry": {"type": "Point", "coordinates": [-19.98523466333255, -32.074709650497]}}]}